#aV2015 12 11  0  0  0.00000000     288 DD+AD WGS84 FIT  NGA
## 1874 432000.00000000   300.00000000 57367 0.0000000000000
+   31     1  2  3  5  6  7  8  9 10 11 12 13 14 15 16 17 18
+         19 20 21 22 23 24 25 26 27 28 29 30 31 32  0  0  0
+          0  0  0  0  0  0  0  0  0  0  0  0  0  0  0  0  0
+          0  0  0  0  0  0  0  0  0  0  0  0  0  0  0  0  0
+          0  0  0  0  0  0  0  0  0  0  0  0  0  0  0  0  0
++         2  2  2  2  2  2  2  2  2  2  2  2  2  2  2  2  2
++         2  2  2  2  2  2  2  2  2  2  2  2  2  2  0  0  0
++         0  0  0  0  0  0  0  0  0  0  0  0  0  0  0  0  0
++         0  0  0  0  0  0  0  0  0  0  0  0  0  0  0  0  0
++         0  0  0  0  0  0  0  0  0  0  0  0  0  0  0  0  0
%c cc cc ccc ccc cccc cccc cccc cccc ccccc ccccc ccccc ccccc
%c cc cc ccc ccc cccc cccc cccc cccc ccccc ccccc ccccc ccccc
%f  0.0000000  0.000000000  0.00000000000  0.000000000000000
%f  0.0000000  0.000000000  0.00000000000  0.000000000000000
%i    0    0    0    0      0      0      0      0         0
%i    0    0    0    0      0      0      0      0         0
/*      NGA, ST. LOUIS,MO.                                  
/*   EPHEMERIS COMPUTED FROM 2 DAYS OF DATA                 
/*   EPOCHA v2.4 SMOOTHER                                   
/*   G1762 IERS2010 SATAF SATAPC                            
*  2015 12 11  1 10  0.00000000
P  1 -22288.661797 -14075.287834  -4137.980529      6.367343                    
V  1   5712.840776    -10.063213 -31099.643001      0.008793                    
P  2   3377.319002  17511.508168  20202.151187    597.645339                    
V  2 -23049.516495  -9011.944732  11472.245340      0.006898                    
P  3 -12616.673404 -16929.876735  16100.446410      3.946493                    
V  3    402.267427 -20548.179531 -21309.238779     -0.050469                    
P  5   2073.071060  26369.843861    248.095934   -166.261816                    
V  5  -3486.935979   -103.245648  31544.998320      0.036753                    
P  6 -10937.239052  11280.764983  21412.102179    110.045677                    
V  6 -24305.087877 -12185.008288  -6006.116385      0.064888                    
P  7 -24176.683501  -4224.399818 -10503.172142    477.777984                    
V  7 -11014.051044  -7871.031098  27790.559928     -0.012308                    
P  8  -7471.038308 -13249.187992 -21720.658578    -15.721354                    
V  8  22876.555566 -15624.585567   1655.191576     -0.014583                    
P  9 -22988.170918   5530.651553  12095.329642     25.962913                    
V  9  11255.022281 -10774.602049  26277.788352      0.078044                    
P 10  11465.987229 -15699.353916 -18073.090061     40.485236                    
V 10   3449.441718  22778.839222 -17633.498007      0.063697                    
P 11 -20447.919527 -11973.376132 -12613.488399   -621.047143                    
V 11  15599.291753  -2306.279433 -24097.307325     -0.020779                    
P 12  10185.593841  19646.713192  14738.710903    352.320738                    
V 12   -814.049502  18790.480351 -24100.343129      0.029895                    
P 13  -2606.591967  17061.155372 -20350.202790   -170.481379                    
V 13 -22913.946798  11167.619588  12286.467450     -0.026850                    
P 14  21619.682183 -15006.958262   3177.199827     16.252949                    
V 14   4616.780298    512.247438 -31616.763403     -0.023757                    
P 15  11110.795965  11461.424598 -21356.984031   -286.545287                    
V 15 -21341.230878  16460.304214  -1937.216376     -0.019169                    
P 16    161.845935 -26344.561297    535.273414    -58.524100                    
V 16   2194.334013    768.579522  32645.976288      0.034809                    
P 17 -21362.661102  15398.339027   2729.637411   -196.222144                    
V 17  -3951.782042   -505.644413 -31958.545091     -0.008547                    
P 18  15454.483356  -3295.390406 -20825.078709    461.480216                    
V 18   3256.530165  27613.897126  -2180.823680      0.037247                    
P 19 -24615.593720   8610.868217  -6414.904215   -523.611229                    
V 19   5827.351291  -5454.333613 -30343.524235     -0.003589                    
P 20  13368.236418  18434.711652 -13776.899082    377.432171                    
V 20   -281.600137  17603.843265  23624.287139      0.028151                    
P 21  23238.635755    474.903571 -12404.753565   -498.748565                    
V 21  14137.456410   9617.815540  25086.465233     -0.022636                    
P 22  10540.723748 -17919.534386 -16241.390466    418.466063                    
V 22   4855.371963  20815.159980 -19705.941637      0.036693                    
P 23 -17230.350139  -5454.971783  19768.681843   -149.049097                    
V 23  19756.122615 -14780.958875  12823.982808     -0.020112                    
P 24  20956.266256  14964.794367  -6917.132628     -9.142215                    
V 24  -9078.856046  -1059.282880 -29786.187049     -0.006341                    
P 25  14729.877202   6272.115437  21125.285916    -80.878541                    
V 25   1459.760591  26935.767294  -8801.574009     -0.060398                    
P 26   5586.910042 -23652.002010  10693.457651   -159.681261                    
V 26   3574.856449  13335.407880  27661.123453     -0.171861                    
P 27   3795.207375 -18297.976209 -18845.103944     43.265966                    
V 27  20453.789312 -12441.034121  16346.809922      0.033072                    
P 28 -11840.095627  14659.920506 -18054.648440    487.402447                    
V 28  -1342.761338 -24196.120730 -18203.303304      0.025795                    
P 29  22200.662019  -2036.925346  14425.328156    647.811011                    
V 29 -14703.712723  10996.098153  24242.885856      0.013997                    
P 30 -18570.326167   4493.981421 -18482.739140     69.231505                    
V 30 -19616.520016 -12961.727184  16479.565523      0.052671                    
P 31   9987.147216 -11580.844638  21870.030250    291.789389                    
V 31  24231.844923  12790.429139  -3971.124499     -0.015612                    
P 32  -5410.791476 -25128.882047   7641.196635     44.015862                    
V 32   2680.866025  -9666.694293 -29079.289651      0.119897                    
EOF
